{
  "type": "FeatureCollection",
  "features": [
    {
      "type": "Feature",
      "properties": {
        "norad_id": 39617,
        "name": "ASTRA 5B (EGNOS/PRN 123)",
        "group": "gnss",
        "lat": 0.018226994039487045,
        "lon": 42.836409925918765,
        "alt_km": 35797.78780303428,
        "timestamp": "2025-12-16T19:34:24.509171+00:00",
        "meta_object_name": "ASTRA 5B (EGNOS/PRN 123)",
        "meta_object_id": "2014-011B",
        "meta_epoch": "2025-12-15T22:03:38.887776",
        "meta_mean_motion": 1.00274214,
        "meta_eccentricity": 0.00042211,
        "meta_inclination": 0.0668,
        "meta_ra_of_asc_node": 43.743,
        "meta_arg_of_pericenter": 224.7979,
        "meta_mean_anomaly": 170.6904,
        "meta_ephemeris_type": 0,
        "meta_classification_type": "U",
        "meta_norad_cat_id": 39617,
        "meta_element_set_no": 999,
        "meta_rev_at_epoch": 4283,
        "meta_bstar": 0,
        "meta_mean_motion_dot": 1.6e-06,
        "meta_mean_motion_ddot": 0,
        "tle_line1": "1 39617U 14011B   25349.91920009  .00000160  00000+0  00000+0 0  9991",
        "tle_line2": "2 39617   0.0668  43.7430 0004221 224.7979 170.6904  1.00274214 42833"
      },
      "geometry": {
        "type": "Point",
        "coordinates": [
          42.836409925918765,
          0.018226994039487045
        ]
      }
    },
    {
      "type": "Feature",
      "properties": {
        "norad_id": 39620,
        "name": "COSMOS 2492 (754)",
        "group": "gnss",
        "lat": 13.51195782794675,
        "lon": -33.563597189076994,
        "alt_km": 19111.34841815024,
        "timestamp": "2025-12-16T19:34:24.509183+00:00",
        "meta_object_name": "COSMOS 2492 (754)",
        "meta_object_id": "2014-012A",
        "meta_epoch": "2025-12-16T07:50:46.447872",
        "meta_mean_motion": 2.13103282,
        "meta_eccentricity": 0.0014254,
        "meta_inclination": 65.4058,
        "meta_ra_of_asc_node": 320.149,
        "meta_arg_of_pericenter": 313.159,
        "meta_mean_anomaly": 46.7158,
        "meta_ephemeris_type": 0,
        "meta_classification_type": "U",
        "meta_norad_cat_id": 39620,
        "meta_element_set_no": 999,
        "meta_rev_at_epoch": 9134,
        "meta_bstar": 0,
        "meta_mean_motion_dot": -6.8e-07,
        "meta_mean_motion_ddot": 0,
        "tle_line1": "1 39620U 14012A   25350.32692648 -.00000068  00000+0  00000+0 0  9996",
        "tle_line2": "2 39620  65.4058 320.1490 0014254 313.1590  46.7158  2.13103282 91347"
      },
      "geometry": {
        "type": "Point",
        "coordinates": [
          -33.563597189076994,
          13.51195782794675
        ]
      }
    },
    {
      "type": "Feature",
      "properties": {
        "norad_id": 39635,
        "name": "IRNSS-1B",
        "group": "gnss",
        "lat": -5.444316811799493,
        "lon": 73.3853144665153,
        "alt_km": 35720.62310462593,
        "timestamp": "2025-12-16T19:34:24.509194+00:00",
        "meta_object_name": "IRNSS-1B",
        "meta_object_id": "2014-017A",
        "meta_epoch": "2025-12-11T18:54:44.030304",
        "meta_mean_motion": 1.00285038,
        "meta_eccentricity": 0.00181492,
        "meta_inclination": 29.2271,
        "meta_ra_of_asc_node": 243.6214,
        "meta_arg_of_pericenter": 227.0185,
        "meta_mean_anomaly": 309.1991,
        "meta_ephemeris_type": 0,
        "meta_classification_type": "U",
        "meta_norad_cat_id": 39635,
        "meta_element_set_no": 999,
        "meta_rev_at_epoch": 4291,
        "meta_bstar": 0,
        "meta_mean_motion_dot": 1.07e-06,
        "meta_mean_motion_ddot": 0,
        "tle_line1": "1 39635U 14017A   25345.78800961  .00000107  00000+0  00000+0 0  9993",
        "tle_line2": "2 39635  29.2271 243.6214 0018149 227.0185 309.1991  1.00285038 42916"
      },
      "geometry": {
        "type": "Point",
        "coordinates": [
          73.3853144665153,
          -5.444316811799493
        ]
      }
    },
    {
      "type": "Feature",
      "properties": {
        "norad_id": 39727,
        "name": "LUCH 5V (SDCM/PRN 141)",
        "group": "gnss",
        "lat": 3.1785528795565425,
        "lon": 113.88936196918456,
        "alt_km": 35804.79345566179,
        "timestamp": "2025-12-16T19:34:24.509207+00:00",
        "meta_object_name": "LUCH 5V (SDCM/PRN 141)",
        "meta_object_id": "2014-023A",
        "meta_epoch": "2025-12-15T18:58:29.535168",
        "meta_mean_motion": 1.00268411,
        "meta_eccentricity": 0.00043859,
        "meta_inclination": 4.677,
        "meta_ra_of_asc_node": 71.5106,
        "meta_arg_of_pericenter": 209.4827,
        "meta_mean_anomaly": 183.0334,
        "meta_ephemeris_type": 0,
        "meta_classification_type": "U",
        "meta_norad_cat_id": 39727,
        "meta_element_set_no": 999,
        "meta_rev_at_epoch": 4252,
        "meta_bstar": 0,
        "meta_mean_motion_dot": -2.49e-06,
        "meta_mean_motion_ddot": 0,
        "tle_line1": "1 39727U 14023A   25349.79061962 -.00000249  00000+0  00000+0 0  9995",
        "tle_line2": "2 39727   4.6770  71.5106 0004385 209.4827 183.0334  1.00268411 42524"
      },
      "geometry": {
        "type": "Point",
        "coordinates": [
          113.88936196918456,
          3.1785528795565425
        ]
      }
    },
    {
      "type": "Feature",
      "properties": {
        "norad_id": 39741,
        "name": "GPS BIIF-6  (PRN 06)",
        "group": "gnss",
        "lat": -46.11446602430566,
        "lon": -158.04014616574784,
        "alt_km": 20167.460831036595,
        "timestamp": "2025-12-16T19:34:24.509221+00:00",
        "meta_object_name": "GPS BIIF-6  (PRN 06)",
        "meta_object_id": "2014-026A",
        "meta_epoch": "2025-12-15T11:38:58.689600",
        "meta_mean_motion": 2.00561238,
        "meta_eccentricity": 0.00392615,
        "meta_inclination": 56.5825,
        "meta_ra_of_asc_node": 338.6695,
        "meta_arg_of_pericenter": 318.8449,
        "meta_mean_anomaly": 40.8708,
        "meta_ephemeris_type": 0,
        "meta_classification_type": "U",
        "meta_norad_cat_id": 39741,
        "meta_element_set_no": 999,
        "meta_rev_at_epoch": 8485,
        "meta_bstar": 0,
        "meta_mean_motion_dot": -8.7e-07,
        "meta_mean_motion_ddot": 0,
        "tle_line1": "1 39741U 14026A   25349.48540150 -.00000087  00000+0  00000+0 0  9991",
        "tle_line2": "2 39741  56.5825 338.6695 0039261 318.8449  40.8708  2.00561238 84854"
      },
      "geometry": {
        "type": "Point",
        "coordinates": [
          -158.04014616574784,
          -46.11446602430566
        ]
      }
    },
    {
      "type": "Feature",
      "properties": {
        "norad_id": 40001,
        "name": "COSMOS 2500 (755)",
        "group": "gnss",
        "lat": -53.93969088026287,
        "lon": 178.9858410509223,
        "alt_km": 19116.611400552953,
        "timestamp": "2025-12-16T19:34:24.509240+00:00",
        "meta_object_name": "COSMOS 2500 (755)",
        "meta_object_id": "2014-032A",
        "meta_epoch": "2025-12-15T13:27:13.709376",
        "meta_mean_motion": 2.1310598,
        "meta_eccentricity": 0.00081492,
        "meta_inclination": 65.3414,
        "meta_ra_of_asc_node": 319.9362,
        "meta_arg_of_pericenter": 219.0671,
        "meta_mean_anomaly": 140.8696,
        "meta_ephemeris_type": 0,
        "meta_classification_type": "U",
        "meta_norad_cat_id": 40001,
        "meta_element_set_no": 999,
        "meta_rev_at_epoch": 8954,
        "meta_bstar": 0,
        "meta_mean_motion_dot": -6.8e-07,
        "meta_mean_motion_ddot": 0,
        "tle_line1": "1 40001U 14032A   25349.56057534 -.00000068  00000+0  00000+0 0  9996",
        "tle_line2": "2 40001  65.3414 319.9362 0008149 219.0671 140.8696  2.13105980 89540"
      },
      "geometry": {
        "type": "Point",
        "coordinates": [
          178.9858410509223,
          -53.93969088026287
        ]
      }
    },
    {
      "type": "Feature",
      "properties": {
        "norad_id": 40105,
        "name": "GPS BIIF-7  (PRN 09)",
        "group": "gnss",
        "lat": 1.5516533497147647,
        "lon": -85.3468614762747,
        "alt_km": 20135.436031673198,
        "timestamp": "2025-12-16T19:34:24.509257+00:00",
        "meta_object_name": "GPS BIIF-7  (PRN 09)",
        "meta_object_id": "2014-045A",
        "meta_epoch": "2025-12-12T01:59:18.865536",
        "meta_mean_motion": 2.00572516,
        "meta_eccentricity": 0.00326941,
        "meta_inclination": 55.2287,
        "meta_ra_of_asc_node": 95.9251,
        "meta_arg_of_pericenter": 119.8618,
        "meta_mean_anomaly": 240.4523,
        "meta_ephemeris_type": 0,
        "meta_classification_type": "U",
        "meta_norad_cat_id": 40105,
        "meta_element_set_no": 999,
        "meta_rev_at_epoch": 8232,
        "meta_bstar": 0,
        "meta_mean_motion_dot": -9e-08,
        "meta_mean_motion_ddot": 0,
        "tle_line1": "1 40105U 14045A   25346.08285724 -.00000009  00000+0  00000+0 0  9998",
        "tle_line2": "2 40105  55.2287  95.9251 0032694 119.8618 240.4523  2.00572516 82323"
      },
      "geometry": {
        "type": "Point",
        "coordinates": [
          -85.3468614762747,
          1.5516533497147647
        ]
      }
    }
  ]
}